{"type":"FeatureCollection","name":"tower_hamlets CPZ areas (Felt 2024)","source":"https://felt.com/map/B3MJYQpnQXGbIL9C0TK4biD — London CPZ by borough, 2024 (Healthy Streets Scorecard). Borough-level coverage only — no per-zone identity.","generatedAt":"2026-05-11","features":[{"type":"Feature","geometry":{"type":"MultiPolygon","coordinates":[[[[-0.0781308,51.52188],[-0.0781108,51.5218765],[-0.07809,51.521873],[-0.0780722,51.5218691],[-0.0780551,51.5218652],[-0.0780491,51.5218692],[-0.0779155,51.5219106],[-0.0777425,51.5219622],[-0.0776017,51.5220012],[-0.0773882,51.5220571],[-0.0773559,51.5220652],[-0.0771744,51.5221047],[-0.0771663,51.5221061],[-0.0771591,51.5221073],[-0.0767738,51.5221674],[-0.0766782,51.5221816],[-0.0764539,51.5220121],[-0.0761871,51.5221516],[-0.0761634,51.5222007],[-0.0760795,51.5223783],[-0.0760145,51.5225516],[-0.0758631,51.5228954],[-0.0758384,51.5229687],[-0.0758152,51.5230394],[-0.0757705,51.523178],[-0.0757272,51.5234849],[-0.0757186,51.5235872],[-0.0757765,51.5238562],[-0.0759154,51.5243216],[-0.075948,51.5243194],[-0.0759533,51.5243369],[-0.0760905,51.5243298],[-0.0763372,51.5243146],[-0.0764454,51.524308],[-0.0765605,51.5253312],[-0.0766013,51.5257311],[-0.0766292,51.5259924],[-0.0766425,51.5261563],[-0.0766404,51.526274],[-0.0766356,51.5263882],[-0.0765396,51.5265107],[-0.0763572,51.5268719],[-0.0763153,51.5271464],[-0.0772533,51.5272967],[-0.0768885,51.5275029],[-0.0768401,51.5275363],[-0.07683,51.527542],[-0.0767848,51.5275695],[-0.0767395,51.5275976],[-0.0766791,51.5276386],[-0.0766197,51.5276795],[-0.0765639,51.5277198],[-0.07651,51.5277597],[-0.0764555,51.5278021],[-0.0763495,51.5278753],[-0.0760392,51.5281229],[-0.0756803,51.5283931],[-0.0756353,51.5284356],[-0.0754784,51.5285993],[-0.0753184,51.5288053],[-0.0749322,51.5294159],[-0.0746496,51.5297916],[-0.0743736,51.5300128],[-0.0741706,51.5301426],[-0.0740915,51.5301872],[-0.0740808,51.5301925],[-0.0740283,51.5302194],[-0.0739755,51.5302458],[-0.0739749,51.5302461],[-0.0739245,51.5302676],[-0.0738732,51.5302888],[-0.0738365,51.5303025],[-0.0737991,51.530316],[-0.0736845,51.5303584],[-0.0735336,51.5304132],[-0.0732904,51.5305003],[-0.0730378,51.5305902],[-0.0728611,51.5306535],[-0.0727845,51.5306756],[-0.0727089,51.5306972],[-0.0724229,51.530787],[-0.0723336,51.5308125],[-0.0722634,51.5308316],[-0.0722091,51.5308458],[-0.0719265,51.5308764],[-0.0716333,51.5309228],[-0.0712324,51.5309576],[-0.0711723,51.5309615],[-0.0706052,51.5309837],[-0.0703046,51.5309975],[-0.0699713,51.5310133],[-0.0696662,51.5310263],[-0.0695812,51.531029],[-0.0692959,51.531031],[-0.0691005,51.5310403],[-0.0689817,51.5310432],[-0.0687352,51.5310518],[-0.0686576,51.5310555],[-0.0684825,51.5310612],[-0.0683454,51.5310634],[-0.0682146,51.5310672],[-0.0681804,51.5310692],[-0.0681171,51.5310723],[-0.0680323,51.5310767],[-0.0678345,51.5310869],[-0.0676736,51.5310951],[-0.0675074,51.531105],[-0.0674676,51.5311082],[-0.0673806,51.5311164],[-0.0672986,51.5311234],[-0.0670371,51.5311457],[-0.0668986,51.5311595],[-0.0667278,51.5311753],[-0.0666092,51.5311854],[-0.0664617,51.5311992],[-0.0663288,51.5312127],[-0.0662846,51.5312211],[-0.0662803,51.5312219],[-0.0662795,51.5312272],[-0.0662775,51.5312325],[-0.0662724,51.5312473],[-0.0662631,51.5312891],[-0.066257,51.5313325],[-0.0662533,51.5313503],[-0.0661789,51.5315039],[-0.0659854,51.5318553],[-0.0657834,51.5321965],[-0.0657361,51.5322782],[-0.0656236,51.5324614],[-0.0655027,51.5326827],[-0.0653796,51.5328985],[-0.065336,51.5329718],[-0.0651932,51.5331513],[-0.0651894,51.5331539],[-0.0651821,51.5331568],[-0.0651739,51.5331589],[-0.0651687,51.5331562],[-0.0651625,51.5331516],[-0.0651547,51.5331447],[-0.0651478,51.5331375],[-0.0651409,51.533131],[-0.0651366,51.5331241],[-0.0651333,51.5331173],[-0.0651265,51.5331061],[-0.0651175,51.5330875],[-0.0650933,51.5330407],[-0.0650851,51.5330226],[-0.0650686,51.5329873],[-0.0650493,51.5329327],[-0.0650352,51.5329032],[-0.0649849,51.5329093],[-0.0649807,51.5329004],[-0.0632631,51.5330789],[-0.0629704,51.5331313],[-0.0628831,51.5331387],[-0.0628061,51.5331478],[-0.0627273,51.5331582],[-0.0626764,51.5331664],[-0.0626221,51.5331753],[-0.0625286,51.5331923],[-0.0624913,51.5331962],[-0.0624434,51.5332015],[-0.0623926,51.5332093],[-0.0623788,51.533214],[-0.0623389,51.5332207],[-0.0623145,51.5332248],[-0.0622716,51.5332375],[-0.0622497,51.5332456],[-0.062238,51.5332472],[-0.0622392,51.5332494],[-0.0622167,51.5332577],[-0.0622675,51.5333332],[-0.0622734,51.5333449],[-0.0622896,51.5333623],[-0.062307,51.5333779],[-0.0623089,51.5333798],[-0.0623141,51.5333897],[-0.0624575,51.5336124],[-0.0625594,51.5337713],[-0.0625657,51.533782],[-0.0625722,51.533792],[-0.0627166,51.5340987],[-0.0627541,51.5342342],[-0.0628332,51.534612],[-0.0628345,51.5346235],[-0.0628385,51.5346498],[-0.0628503,51.5349911],[-0.062828,51.5350363],[-0.0628084,51.5350664],[-0.0627881,51.5351034],[-0.0627871,51.5351043],[-0.0627736,51.5351238],[-0.0627566,51.5351424],[-0.0627481,51.5351535],[-0.0627099,51.5352042],[-0.0626553,51.5352762],[-0.0625902,51.5353673],[-0.062553,51.5354184],[-0.0625244,51.5354543],[-0.0625035,51.5354793],[-0.0624704,51.5355163],[-0.0622472,51.5354811],[-0.0621772,51.5354588],[-0.0620612,51.5354313],[-0.0620238,51.5354222],[-0.061997,51.5354147],[-0.0617025,51.5352873],[-0.0617006,51.5352862],[-0.061341,51.5350147],[-0.061115,51.5348267],[-0.0610085,51.5347335],[-0.06087,51.5346174],[-0.0606832,51.5344472],[-0.0606551,51.5344288],[-0.0604604,51.5343275],[-0.0603712,51.5342892],[-0.0603561,51.5342841],[-0.0603324,51.5342734],[-0.06032,51.5342688],[-0.0602818,51.5342545],[-0.0602562,51.5342445],[-0.0601698,51.5342171],[-0.0601085,51.5341971],[-0.0600791,51.5341899],[-0.0600309,51.5341807],[-0.0599558,51.5341685],[-0.0599097,51.5341566],[-0.0596847,51.5341241],[-0.0596815,51.5341238],[-0.0596569,51.5341196],[-0.0595795,51.5341115],[-0.0595033,51.5341045],[-0.0594521,51.5341],[-0.0594,51.5340961],[-0.0593652,51.5340952],[-0.0593558,51.5340944],[-0.0590633,51.5340886],[-0.0589895,51.534094],[-0.0589161,51.5340956],[-0.0588357,51.5340996],[-0.0587896,51.534103],[-0.0587434,51.5341077],[-0.0585695,51.5341281],[-0.0584427,51.5341422],[-0.0583114,51.5341584],[-0.0582527,51.534167],[-0.0581953,51.5341773],[-0.0581326,51.5341901],[-0.0580698,51.5342038],[-0.0579996,51.5342207],[-0.0579295,51.5342385],[-0.0578657,51.5342581],[-0.0578025,51.5342787],[-0.0577762,51.5342878],[-0.057566,51.5343417],[-0.0574549,51.534377],[-0.0573829,51.5343977],[-0.0573172,51.5344168],[-0.0573124,51.5344183],[-0.0572032,51.5344499],[-0.057143,51.5344679],[-0.0571018,51.5344797],[-0.0570726,51.5344896],[-0.0570607,51.5344948],[-0.0570432,51.5345026],[-0.0570332,51.5345081],[-0.0568923,51.5345751],[-0.0568771,51.5345824],[-0.056815,51.5346053],[-0.0563589,51.5347665],[-0.0563561,51.5347673],[-0.0561524,51.53483],[-0.0558878,51.5349088],[-0.0557289,51.534956],[-0.0556688,51.5349721],[-0.0555205,51.5350091],[-0.05536,51.5350498],[-0.0552325,51.5350792],[-0.0551607,51.5350931],[-0.0551289,51.535099],[-0.0551,51.5351034],[-0.0550451,51.5351102],[-0.0549825,51.5351091],[-0.0549427,51.535113],[-0.0548885,51.5351166],[-0.0548704,51.5351186],[-0.0548523,51.5351209],[-0.0548369,51.5351233],[-0.0548213,51.5351267],[-0.0548104,51.5351297],[-0.0547994,51.5351327],[-0.0547531,51.5351436],[-0.0547294,51.5351489],[-0.0547058,51.5351536],[-0.054685,51.5351559],[-0.0546578,51.5351581],[-0.0546298,51.5351599],[-0.054628,51.5351604],[-0.0545548,51.535164],[-0.0544827,51.535166],[-0.054471,51.5351663],[-0.0543907,51.5351653],[-0.0543106,51.5351628],[-0.0542647,51.5351606],[-0.0542198,51.5351581],[-0.0540105,51.5351434],[-0.0539926,51.5351422],[-0.0538847,51.5351332],[-0.0537761,51.5351219],[-0.0537009,51.5351116],[-0.0535934,51.5350956],[-0.0534898,51.5350773],[-0.0533753,51.5350541],[-0.0532611,51.5350293],[-0.053187,51.5350119],[-0.0531138,51.534994],[-0.0528838,51.5349376],[-0.0528828,51.53494],[-0.052836,51.5349287],[-0.0528298,51.5349859],[-0.0489641,51.5336571],[-0.0483117,51.5334296],[-0.045918,51.5326196],[-0.0449139,51.5320381],[-0.0445159,51.5318542],[-0.0437033,51.5314788],[-0.0430984,51.5311863],[-0.0425424,51.5307151],[-0.0422277,51.5303761],[-0.0416818,51.5296738],[-0.0399884,51.5273109],[-0.0391175,51.5261388],[-0.0379902,51.5250746],[-0.0370894,51.5242402],[-0.0371499,51.5242183],[-0.0371819,51.5242034],[-0.0373657,51.5241167],[-0.0379803,51.5238231],[-0.038365,51.5236298],[-0.0386691,51.523461],[-0.0389885,51.5233216],[-0.0391914,51.5232478],[-0.0394869,51.5231428],[-0.0398273,51.5230319],[-0.040009,51.5229844],[-0.0401367,51.5229449],[-0.0404803,51.5228343],[-0.0408531,51.5227236],[-0.0411049,51.5226537],[-0.0412951,51.52261],[-0.0425093,51.5223711],[-0.0431404,51.5222932],[-0.04357,51.5222712],[-0.0439318,51.5222524],[-0.0441717,51.5222301],[-0.0443843,51.5222005],[-0.0447368,51.52215],[-0.0450768,51.522094],[-0.0452961,51.5220556],[-0.0456964,51.5219857],[-0.0462343,51.5218777],[-0.0469323,51.5217365],[-0.0470635,51.5217027],[-0.047645,51.5215865],[-0.0490413,51.521295],[-0.0495361,51.5211863],[-0.0500308,51.5210776],[-0.0516746,51.5207272],[-0.0521978,51.520628],[-0.0524158,51.5205867],[-0.0529633,51.5204806],[-0.0531425,51.5204459],[-0.0532441,51.5204296],[-0.0540872,51.5202637],[-0.0550607,51.520082],[-0.0556274,51.5199745],[-0.0558018,51.5199414],[-0.0563834,51.5198252],[-0.0580628,51.5194979],[-0.0624138,51.5185298],[-0.0627693,51.518456],[-0.0629326,51.5184261],[-0.0638462,51.518213],[-0.0639922,51.5181705],[-0.0645024,51.518035],[-0.0650714,51.5178735],[-0.0651298,51.5178565],[-0.0652321,51.5178222],[-0.0653345,51.517788],[-0.0659182,51.5176177],[-0.0662101,51.5175326],[-0.0664584,51.5174558],[-0.0667218,51.5173612],[-0.0669261,51.5173016],[-0.0669997,51.5172669],[-0.0672927,51.5171548],[-0.0680262,51.5168521],[-0.0683495,51.5167046],[-0.0687612,51.5165135],[-0.0690993,51.5163572],[-0.0695109,51.5161662],[-0.0696728,51.5160879],[-0.0700401,51.5159231],[-0.0710369,51.5155258],[-0.0714027,51.5153969],[-0.0722809,51.5150787],[-0.0725587,51.5149843],[-0.072705,51.5149328],[-0.0734369,51.514666],[-0.0735828,51.5146234],[-0.0740077,51.5144803],[-0.0743065,51.5146875],[-0.074442,51.5147904],[-0.0748138,51.5150996],[-0.0748279,51.5151104],[-0.0748338,51.5151198],[-0.0748615,51.5151462],[-0.0748895,51.5151705],[-0.0749076,51.5151852],[-0.0749289,51.5151971],[-0.0750007,51.5152429],[-0.0750017,51.5152436],[-0.0751461,51.5153541],[-0.076434,51.5162574],[-0.0768191,51.516592],[-0.0768576,51.5166367],[-0.0768769,51.5166586],[-0.0769181,51.5167069],[-0.0773705,51.517396],[-0.077403,51.5174459],[-0.0776433,51.5178653],[-0.0776863,51.517974],[-0.0777341,51.5180368],[-0.0778032,51.5181081],[-0.0779658,51.5182501],[-0.0781469,51.5184689],[-0.0780482,51.5184853],[-0.0780826,51.5189678],[-0.0781258,51.5189639],[-0.0781261,51.5189766],[-0.0788876,51.5189253],[-0.0792048,51.5189019],[-0.0794122,51.5188866],[-0.0791736,51.5194515],[-0.07899,51.520114],[-0.0788406,51.520652],[-0.0788432,51.5206565],[-0.078811,51.5207387],[-0.0787305,51.5210396],[-0.0784715,51.5215101],[-0.0784528,51.5215431],[-0.0782365,51.5218534],[-0.0781379,51.5218812],[-0.0781308,51.52188]]]]},"properties":{"borough":"tower_hamlets","felt_id":1109}},{"type":"Feature","geometry":{"type":"MultiPolygon","coordinates":[[[[-0.0793434,51.5079068],[-0.0793284,51.5079048],[-0.0792484,51.5078905],[-0.0792469,51.5078941],[-0.0792433,51.5078936],[-0.0791577,51.5080927],[-0.0790872,51.5082495],[-0.07909,51.5082501],[-0.0790548,51.5083321],[-0.0790471,51.5084129],[-0.0789155,51.5085918],[-0.0788694,51.5086522],[-0.078866,51.5086581],[-0.0787364,51.5088097],[-0.0787212,51.5088275],[-0.0787331,51.5088311],[-0.0787312,51.5088335],[-0.0787852,51.5088554],[-0.0787871,51.5088581],[-0.0787806,51.5088715],[-0.0787658,51.5088685],[-0.0787516,51.5088828],[-0.0787422,51.5088939],[-0.0787181,51.508932],[-0.0787633,51.5089476],[-0.0790359,51.5090414],[-0.0790956,51.5090618],[-0.0790693,51.5090925],[-0.0790465,51.5091163],[-0.0790328,51.5091172],[-0.0790026,51.5091073],[-0.0789962,51.5091084],[-0.0789889,51.5091112],[-0.078987,51.509112],[-0.0789815,51.5091159],[-0.0789759,51.5091203],[-0.0789749,51.5091211],[-0.0789625,51.5091219],[-0.0789529,51.5091567],[-0.0789507,51.5091615],[-0.0789366,51.5091948],[-0.0789422,51.5091954],[-0.0789252,51.5092573],[-0.078919,51.5092719],[-0.0789019,51.5093147],[-0.078901,51.5093166],[-0.078864,51.5094044],[-0.07886,51.5094139],[-0.0786357,51.5094328],[-0.0785793,51.5094227],[-0.0785664,51.5094387],[-0.0785441,51.5094406],[-0.0785152,51.5094437],[-0.0785022,51.5095118],[-0.0784575,51.5095737],[-0.0784189,51.5096215],[-0.0783733,51.5096801],[-0.0781667,51.5098813],[-0.0779632,51.5100255],[-0.0777895,51.5101143],[-0.0776662,51.510148],[-0.0776626,51.5101487],[-0.0776607,51.5101491],[-0.0776137,51.5101549],[-0.0775533,51.5101584],[-0.0774483,51.5101705],[-0.0769288,51.5102075],[-0.0769252,51.510213],[-0.0769192,51.5102134],[-0.0768826,51.5102595],[-0.0768844,51.5102952],[-0.0768779,51.5103247],[-0.076893,51.5104788],[-0.0768178,51.5104897],[-0.076816,51.5104896],[-0.0764611,51.5105322],[-0.0762856,51.5105438],[-0.0762764,51.5104537],[-0.0761725,51.5104565],[-0.0761638,51.5104567],[-0.0761635,51.5104555],[-0.0761431,51.510364],[-0.0761376,51.5103647],[-0.0760834,51.5101129],[-0.0760821,51.5101061],[-0.0760819,51.5101061],[-0.0760811,51.5101022],[-0.0758786,51.5101184],[-0.0757931,51.5101215],[-0.0757886,51.5100967],[-0.0757805,51.5100122],[-0.0757792,51.5099793],[-0.0757739,51.5099324],[-0.075754,51.5098723],[-0.075735,51.5098741],[-0.0757102,51.5098617],[-0.0756822,51.5098429],[-0.0756563,51.509819],[-0.0756608,51.5097963],[-0.0755967,51.5097627],[-0.0755841,51.5097499],[-0.0755766,51.5097521],[-0.0755445,51.5097353],[-0.0754947,51.5097646],[-0.0754358,51.5097938],[-0.0754344,51.5097944],[-0.0754118,51.5098011],[-0.075158,51.5098859],[-0.0750751,51.5099104],[-0.0748366,51.5099922],[-0.0744857,51.5099402],[-0.0744723,51.5099356],[-0.0744581,51.5099324],[-0.0744357,51.5099303],[-0.0744112,51.5099324],[-0.0743739,51.5099428],[-0.0743336,51.5099594],[-0.0742967,51.5099807],[-0.0741969,51.5100086],[-0.0740496,51.5100503],[-0.073833,51.5100935],[-0.0735469,51.5101069],[-0.0733349,51.5101014],[-0.0731335,51.5100942],[-0.0731083,51.5100939],[-0.0730839,51.5100934],[-0.0730597,51.5100934],[-0.0730189,51.5100979],[-0.0729962,51.5101038],[-0.0729932,51.5101049],[-0.0729909,51.5101048],[-0.0729869,51.5101071],[-0.0729751,51.5101112],[-0.0729457,51.5101257],[-0.0729332,51.5101371],[-0.0729142,51.5101476],[-0.0728886,51.5101776],[-0.072883,51.5101826],[-0.0728531,51.5102191],[-0.0728354,51.5102399],[-0.072781,51.5102983],[-0.0727597,51.51036],[-0.0727493,51.5106404],[-0.072764,51.5108043],[-0.0727712,51.5108728],[-0.0727795,51.5109041],[-0.0727804,51.5109284],[-0.0727877,51.511028],[-0.0728026,51.5110847],[-0.072813,51.5111139],[-0.0728296,51.5111487],[-0.0728793,51.51121],[-0.0729268,51.5112826],[-0.0729835,51.5114419],[-0.073044,51.5116821],[-0.0730632,51.5118083],[-0.073143,51.5123402],[-0.0732542,51.5128803],[-0.0732696,51.5129949],[-0.0732921,51.5131871],[-0.0733046,51.5132323],[-0.0733161,51.5132799],[-0.0733342,51.5133236],[-0.0734012,51.5135017],[-0.0734392,51.5135879],[-0.0734856,51.5137039],[-0.0735578,51.513871],[-0.0735707,51.5139268],[-0.0735747,51.5139626],[-0.0735812,51.513999],[-0.0735982,51.5140452],[-0.0736295,51.5140911],[-0.0736617,51.5141247],[-0.0736641,51.5141311],[-0.0739691,51.5144535],[-0.0740077,51.5144803],[-0.0735828,51.5146234],[-0.0734369,51.514666],[-0.072705,51.5149328],[-0.0725587,51.5149843],[-0.0722809,51.5150787],[-0.0714027,51.5153969],[-0.0710369,51.5155258],[-0.0700401,51.5159231],[-0.0696728,51.5160879],[-0.0695109,51.5161662],[-0.0690993,51.5163572],[-0.0687612,51.5165135],[-0.0683495,51.5167046],[-0.0680262,51.5168521],[-0.0672927,51.5171548],[-0.0669997,51.5172669],[-0.0669261,51.5173016],[-0.0667218,51.5173612],[-0.0664584,51.5174558],[-0.0662101,51.5175326],[-0.0659182,51.5176177],[-0.0653345,51.517788],[-0.0652321,51.5178222],[-0.0651298,51.5178565],[-0.0650714,51.5178735],[-0.0645024,51.518035],[-0.0639922,51.5181705],[-0.0638462,51.518213],[-0.062962,51.5184192],[-0.0629326,51.5184261],[-0.0628591,51.5184395],[-0.0627693,51.518456],[-0.0624138,51.5185298],[-0.0580628,51.5194979],[-0.0563834,51.5198252],[-0.0558018,51.5199414],[-0.0556274,51.5199745],[-0.0550607,51.520082],[-0.0540872,51.5202637],[-0.0532441,51.5204296],[-0.0531425,51.5204459],[-0.0529633,51.5204806],[-0.0524158,51.5205867],[-0.0521978,51.520628],[-0.0516746,51.5207272],[-0.0500308,51.5210776],[-0.0495361,51.5211863],[-0.0490413,51.521295],[-0.047645,51.5215865],[-0.0470635,51.5217027],[-0.0469323,51.5217365],[-0.0462343,51.5218777],[-0.0456964,51.5219857],[-0.0452961,51.5220556],[-0.0450766,51.522094],[-0.0447368,51.52215],[-0.0443842,51.5222005],[-0.0441717,51.5222301],[-0.0439316,51.5222524],[-0.04357,51.5222712],[-0.0431404,51.5222932],[-0.0425093,51.5223711],[-0.0412951,51.52261],[-0.0411049,51.5226537],[-0.0408531,51.5227236],[-0.0404803,51.5228343],[-0.0401367,51.5229449],[-0.040009,51.5229844],[-0.0398273,51.5230319],[-0.0394867,51.5231428],[-0.0391914,51.5232478],[-0.0389883,51.5233216],[-0.0386691,51.523461],[-0.038365,51.5236298],[-0.0379803,51.5238231],[-0.0373657,51.5241167],[-0.0371819,51.5242034],[-0.0371499,51.5242183],[-0.0370894,51.5242402],[-0.0367632,51.5239665],[-0.0365568,51.5231716],[-0.0364798,51.5222888],[-0.0364543,51.5219963],[-0.0364267,51.5215196],[-0.0363414,51.5200432],[-0.0362917,51.5191689],[-0.035986,51.5186454],[-0.0355399,51.5183377],[-0.0344794,51.5175694],[-0.0339104,51.5170686],[-0.0338206,51.5166168],[-0.0337874,51.5163706],[-0.0342368,51.5155867],[-0.0349034,51.5148338],[-0.0355688,51.514108],[-0.0360772,51.5134752],[-0.0364463,51.5130311],[-0.036471,51.5125966],[-0.036471,51.5125962],[-0.0364709,51.5125962],[-0.0358219,51.5125672],[-0.0355911,51.512557],[-0.0351764,51.5125385],[-0.0345583,51.5125012],[-0.0343279,51.5124973],[-0.0340546,51.5124837],[-0.033767,51.5124699],[-0.0333788,51.5124454],[-0.0330767,51.5124314],[-0.0324872,51.5124035],[-0.032046,51.5123809],[-0.0316918,51.5123358],[-0.0313577,51.5123138],[-0.0310202,51.5123339],[-0.0304258,51.5124139],[-0.0303682,51.5124129],[-0.0302246,51.5124015],[-0.0298375,51.5123504],[-0.0295542,51.512281],[-0.0292069,51.5121665],[-0.028681,51.5119748],[-0.0281183,51.5118664],[-0.0281775,51.5117501],[-0.0281909,51.5116567],[-0.0281486,51.5115536],[-0.0280485,51.5114787],[-0.0275446,51.5110958],[-0.0270175,51.5107036],[-0.0264247,51.510319],[-0.0255622,51.5097721],[-0.0259606,51.5095754],[-0.0261147,51.5094985],[-0.026217,51.5094394],[-0.0262842,51.5093906],[-0.0264029,51.5092657],[-0.0265668,51.5091115],[-0.0266991,51.5089898],[-0.0268993,51.5087642],[-0.0269866,51.5086143],[-0.0270758,51.5084761],[-0.0272125,51.5081515],[-0.0272417,51.5080655],[-0.027275,51.5079379],[-0.0273,51.507865],[-0.0273076,51.5078651],[-0.027322,51.5078654],[-0.027408,51.5078758],[-0.0274224,51.5078761],[-0.0274944,51.5078773],[-0.0275121,51.5078786],[-0.0275302,51.5078799],[-0.0278104,51.5079006],[-0.0278536,51.5079013],[-0.0282296,51.5078716],[-0.0288198,51.5078379],[-0.0288425,51.5078364],[-0.0291169,51.5078192],[-0.0291156,51.507833],[-0.0291162,51.5078461],[-0.0291165,51.5078551],[-0.029117,51.5078614],[-0.0291172,51.5078722],[-0.0291635,51.5078714],[-0.029398,51.5078675],[-0.0294093,51.5078673],[-0.0294098,51.5079023],[-0.0294477,51.5079018],[-0.0294638,51.5079016],[-0.029554,51.5079029],[-0.0296081,51.5078247],[-0.0296307,51.5077963],[-0.029666,51.5077615],[-0.0296758,51.5077521],[-0.0297054,51.5077346],[-0.0297269,51.5077261],[-0.0297493,51.5077173],[-0.0297912,51.5076992],[-0.0298124,51.5076895],[-0.0298886,51.5076262],[-0.0299213,51.5075858],[-0.0299718,51.5075284],[-0.0300989,51.5074508],[-0.0301412,51.5074258],[-0.0304155,51.5072634],[-0.0304106,51.5072602],[-0.0303984,51.5072522],[-0.0303969,51.507251],[-0.0303957,51.5072485],[-0.030396,51.5072473],[-0.0303982,51.5072451],[-0.0304135,51.5072359],[-0.0304168,51.5072343],[-0.031555,51.5078169],[-0.0315667,51.5078459],[-0.0312729,51.5080765],[-0.0308092,51.5084024],[-0.030336,51.5085815],[-0.0298768,51.5088058],[-0.0299132,51.5088631],[-0.0300515,51.5088312],[-0.0304791,51.5087053],[-0.0308943,51.5085693],[-0.0310995,51.5084891],[-0.0312235,51.5084543],[-0.0312948,51.5084375],[-0.0315016,51.5084212],[-0.031464,51.5082578],[-0.0315674,51.5081984],[-0.031598,51.5081908],[-0.0316255,51.5081886],[-0.0318707,51.5082161],[-0.032204,51.5082388],[-0.0325294,51.5082451],[-0.032663,51.5082222],[-0.0330417,51.5083292],[-0.0330319,51.5083893],[-0.0332479,51.5084613],[-0.0331586,51.5085929],[-0.0333169,51.5086315],[-0.0333915,51.5085383],[-0.0347103,51.5089022],[-0.035131,51.5090054],[-0.0355393,51.5090608],[-0.0359298,51.5091285],[-0.0359713,51.5091688],[-0.0359676,51.5093558],[-0.036127,51.5094034],[-0.0361456,51.5094064],[-0.0364056,51.5092237],[-0.0374768,51.5094152],[-0.0374604,51.5094608],[-0.037435,51.509482],[-0.037427,51.5095007],[-0.037429,51.5095214],[-0.0374427,51.5095378],[-0.0374651,51.5095517],[-0.0374808,51.5095574],[-0.0374964,51.509563],[-0.0375336,51.5095681],[-0.0375683,51.509566],[-0.0376672,51.509511],[-0.0377156,51.5094921],[-0.0377753,51.5094769],[-0.037839,51.5094698],[-0.0378965,51.5094735],[-0.0379607,51.5094899],[-0.0380606,51.5095446],[-0.0380932,51.509591],[-0.0382845,51.5096329],[-0.0387335,51.5096826],[-0.0390975,51.509695],[-0.0396209,51.5097236],[-0.0397411,51.5097435],[-0.040726,51.5098284],[-0.0412783,51.5098547],[-0.0414442,51.5098502],[-0.0415642,51.5100105],[-0.041658,51.5100067],[-0.0417491,51.5099983],[-0.0415998,51.5097845],[-0.0421252,51.5097654],[-0.0429412,51.5097233],[-0.0438381,51.5096438],[-0.0438013,51.509493],[-0.0439251,51.5094978],[-0.0439903,51.5095555],[-0.0450454,51.5094832],[-0.0450504,51.5094005],[-0.0454449,51.5093406],[-0.0454418,51.5092461],[-0.0457024,51.5091848],[-0.0467169,51.5088141],[-0.0468868,51.5089851],[-0.0478276,51.5086545],[-0.0480986,51.5085502],[-0.0484023,51.5083233],[-0.0486884,51.5082048],[-0.0488104,51.5081493],[-0.048931,51.508092],[-0.0491198,51.5079899],[-0.0491934,51.5079875],[-0.0495393,51.5080194],[-0.0496757,51.5080324],[-0.0497096,51.5079476],[-0.0497272,51.5079047],[-0.0497305,51.5078957],[-0.0495872,51.5078772],[-0.0494132,51.5078347],[-0.0493296,51.5077002],[-0.0493987,51.5076007],[-0.0494765,51.5075678],[-0.0495347,51.5075544],[-0.0495955,51.5075473],[-0.0496863,51.5075479],[-0.0498086,51.5075859],[-0.050755,51.5070864],[-0.0508023,51.5070943],[-0.0514221,51.5067854],[-0.0513572,51.5067196],[-0.0518445,51.5064435],[-0.0523513,51.506183],[-0.0524268,51.5062032],[-0.0525646,51.5061146],[-0.052713,51.5061836],[-0.0530485,51.5059869],[-0.0529101,51.5058866],[-0.0538431,51.5053643],[-0.05401,51.5054714],[-0.0542025,51.5053487],[-0.0540528,51.5052446],[-0.0547528,51.5048111],[-0.0548577,51.5048524],[-0.0553114,51.5045532],[-0.0553695,51.5044067],[-0.0563161,51.5037642],[-0.0564379,51.503678],[-0.0569487,51.503459],[-0.0573536,51.5033236],[-0.0578613,51.5031432],[-0.0582565,51.5030319],[-0.0583025,51.5030669],[-0.0584515,51.5030208],[-0.058494,51.5029693],[-0.0587462,51.5029348],[-0.0587901,51.5029526],[-0.0588379,51.5029471],[-0.0593556,51.5028694],[-0.0593613,51.5028695],[-0.0597543,51.5028445],[-0.0598828,51.5028394],[-0.0602873,51.502847],[-0.0603932,51.5028308],[-0.060551,51.5028469],[-0.0606414,51.5028556],[-0.0608315,51.5028587],[-0.0611092,51.5028669],[-0.061393,51.5029031],[-0.0613959,51.5029031],[-0.0618375,51.5030219],[-0.0623027,51.5030962],[-0.062318,51.5030407],[-0.0626337,51.503071],[-0.0627739,51.5031291],[-0.0628194,51.5032108],[-0.062819,51.503289],[-0.0628761,51.5033008],[-0.0629348,51.5033089],[-0.0629912,51.5032361],[-0.0630503,51.5032038],[-0.0630896,51.5031937],[-0.0631315,51.5031899],[-0.0631732,51.5031924],[-0.0634241,51.5032559],[-0.0634285,51.5033558],[-0.0644713,51.5036733],[-0.0648147,51.5037626],[-0.0651511,51.5038491],[-0.0652212,51.5037594],[-0.0659323,51.5039474],[-0.0660247,51.5039759],[-0.0668099,51.5042173],[-0.0668879,51.5041439],[-0.0676168,51.5043547],[-0.0680063,51.5044447],[-0.0680191,51.5045187],[-0.0680603,51.5045652],[-0.0680607,51.5045913],[-0.0680416,51.5046665],[-0.0680238,51.504713],[-0.0679348,51.5047727],[-0.0678629,51.5048722],[-0.067976,51.5049577],[-0.0680488,51.5048708],[-0.068138,51.5048408],[-0.0681278,51.504775],[-0.0681911,51.5047427],[-0.0683035,51.5047428],[-0.068458,51.5045664],[-0.0689766,51.5047053],[-0.0699735,51.5050508],[-0.0700175,51.5050686],[-0.0700297,51.5050859],[-0.0701381,51.5051462],[-0.0707785,51.505404],[-0.0711647,51.5055758],[-0.0712837,51.5056236],[-0.0713196,51.5056602],[-0.0712408,51.5057866],[-0.0712937,51.5058297],[-0.0712446,51.5059701],[-0.0714025,51.5060186],[-0.0714196,51.5060216],[-0.0715691,51.5058253],[-0.0718755,51.5059058],[-0.0719884,51.5058951],[-0.072043,51.5058978],[-0.0721018,51.5059042],[-0.0722934,51.5059415],[-0.0722835,51.5060034],[-0.0724058,51.5060432],[-0.0724887,51.5059573],[-0.0725244,51.5059291],[-0.0726539,51.5059016],[-0.0726905,51.5059543],[-0.0726425,51.5060345],[-0.0733993,51.5062663],[-0.0734575,51.5062178],[-0.0736,51.5062579],[-0.0736996,51.506184],[-0.0745969,51.5064344],[-0.0745018,51.5066046],[-0.0748859,51.5066882],[-0.0753004,51.5067687],[-0.0754962,51.506807],[-0.0756904,51.5068498],[-0.0761798,51.5070341],[-0.0772274,51.5072392],[-0.0776946,51.5073359],[-0.0778654,51.5073522],[-0.0781203,51.5074238],[-0.0785813,51.5075294],[-0.0788571,51.5076885],[-0.0790604,51.5077872],[-0.0791859,51.507818],[-0.0791906,51.50781],[-0.079222,51.5078177],[-0.0792947,51.507836],[-0.0793104,51.507839],[-0.0793794,51.5078428],[-0.0793524,51.5078933],[-0.0793434,51.5079068]]]]},"properties":{"borough":"tower_hamlets","felt_id":1110}},{"type":"Feature","geometry":{"type":"MultiPolygon","coordinates":[[[[-0.0290403,51.5423156],[-0.0290348,51.5423179],[-0.0290273,51.5422998],[-0.0290188,51.5422713],[-0.0290088,51.5422737],[-0.0290015,51.5422754],[-0.0287174,51.5423324],[-0.0283869,51.5424051],[-0.028155,51.5424622],[-0.0279663,51.542327],[-0.0277155,51.5421249],[-0.0273836,51.5417956],[-0.0272457,51.5416494],[-0.0271779,51.5415493],[-0.0269477,51.5412037],[-0.0268663,51.5410855],[-0.0268398,51.5410311],[-0.0266934,51.5407498],[-0.026617,51.5405147],[-0.0264155,51.5397461],[-0.0264149,51.5397464],[-0.026412,51.5397328],[-0.0262136,51.5389755],[-0.0262114,51.5389668],[-0.0261838,51.5388618],[-0.0261812,51.538852],[-0.0260728,51.5384283],[-0.0260591,51.5383749],[-0.0260548,51.5383577],[-0.0260358,51.5382838],[-0.0260237,51.5382296],[-0.026012,51.5381665],[-0.0258979,51.5375307],[-0.0258856,51.5374626],[-0.0258145,51.5370661],[-0.0257416,51.5367501],[-0.0256649,51.536524],[-0.0255484,51.5362163],[-0.0254152,51.5359622],[-0.0252112,51.53568],[-0.0250748,51.5354979],[-0.0250208,51.5354372],[-0.024989,51.5354016],[-0.0248961,51.535297],[-0.0247306,51.5351234],[-0.0246196,51.5350226],[-0.0245653,51.5349766],[-0.0245222,51.53494],[-0.0244802,51.5349123],[-0.0243848,51.5347848],[-0.0242605,51.5346569],[-0.0242048,51.534611],[-0.024051,51.5345004],[-0.0236577,51.53426],[-0.0227145,51.5337315],[-0.0223765,51.533546],[-0.0206305,51.5325813],[-0.0196391,51.5321689],[-0.0190756,51.5318626],[-0.0190486,51.5318472],[-0.0190389,51.5318417],[-0.0189109,51.5317686],[-0.0188128,51.5318159],[-0.0187182,51.5318605],[-0.0186759,51.5318805],[-0.0185542,51.5319407],[-0.0184502,51.5319889],[-0.0183484,51.5320407],[-0.0183316,51.5320493],[-0.0183162,51.5320572],[-0.0182249,51.5321037],[-0.0181047,51.5321653],[-0.0180244,51.532208],[-0.0180227,51.5322067],[-0.0179773,51.532169],[-0.0179295,51.5321218],[-0.0177891,51.5319498],[-0.0176884,51.5318107],[-0.0176229,51.5316865],[-0.0175202,51.5315376],[-0.0174154,51.5314366],[-0.0172605,51.5313366],[-0.0170959,51.531251],[-0.0168725,51.5311544],[-0.0168589,51.5311471],[-0.0168152,51.5311296],[-0.0167121,51.531085],[-0.0162425,51.530897],[-0.0157343,51.5307082],[-0.0154635,51.5306245],[-0.0151139,51.5305423],[-0.0148631,51.5304736],[-0.0145457,51.5303764],[-0.0143533,51.5302975],[-0.0142805,51.5302645],[-0.0141753,51.5301647],[-0.0140835,51.5300543],[-0.0140674,51.5300271],[-0.0140482,51.5300043],[-0.0139661,51.5299345],[-0.0137977,51.5298846],[-0.0137278,51.5298496],[-0.0137089,51.5298448],[-0.0135824,51.5298116],[-0.0134418,51.5297724],[-0.0132947,51.529733],[-0.0131924,51.5297078],[-0.0131746,51.5297026],[-0.0131675,51.5297017],[-0.0131618,51.5297002],[-0.0130503,51.5296771],[-0.012948,51.5296623],[-0.0128979,51.5296569],[-0.0127977,51.5296414],[-0.0126436,51.5296208],[-0.0124283,51.5295982],[-0.0120112,51.5295565],[-0.0119672,51.5295522],[-0.011891,51.5295446],[-0.0116682,51.5295215],[-0.0115698,51.5295083],[-0.0114294,51.5294878],[-0.0113641,51.5294777],[-0.0112987,51.5294667],[-0.0112442,51.5294568],[-0.0111897,51.5294465],[-0.0111378,51.529436],[-0.011087,51.5294245],[-0.0110415,51.5294128],[-0.010995,51.5294004],[-0.0109373,51.5293864],[-0.0108794,51.5293701],[-0.0108725,51.5293676],[-0.0107866,51.5293177],[-0.0106362,51.5291947],[-0.0105687,51.5290568],[-0.0104872,51.52881],[-0.0104693,51.5287548],[-0.0104684,51.5287516],[-0.0104678,51.5287501],[-0.0104313,51.5286372],[-0.0103536,51.5285334],[-0.0102125,51.5283988],[-0.0101227,51.5283526],[-0.0100647,51.5283184],[-0.0100033,51.5282821],[-0.0099576,51.5282559],[-0.0098837,51.5282138],[-0.0097685,51.5281489],[-0.0096496,51.5280843],[-0.0095729,51.5280423],[-0.0094342,51.527963],[-0.009108,51.5278053],[-0.0090399,51.5277689],[-0.0089228,51.5277065],[-0.0088813,51.5276846],[-0.0088048,51.5276412],[-0.0087532,51.5276089],[-0.0087116,51.5275837],[-0.0086185,51.5275028],[-0.0086035,51.5274872],[-0.0085923,51.5274721],[-0.0085728,51.5274466],[-0.0085682,51.5274398],[-0.0084863,51.5272807],[-0.0084807,51.527266],[-0.0084603,51.5272162],[-0.0084393,51.52716],[-0.0084204,51.5271166],[-0.008396,51.5270596],[-0.0083809,51.5270309],[-0.0083779,51.5270219],[-0.0083719,51.5270137],[-0.0083668,51.5270043],[-0.00836,51.526996],[-0.0083472,51.5269786],[-0.0083353,51.5269619],[-0.0083184,51.5269373],[-0.0082988,51.5269103],[-0.0082784,51.5268837],[-0.0082372,51.5268351],[-0.0082139,51.5268087],[-0.0081899,51.5267836],[-0.0081684,51.5267612],[-0.008145,51.5267391],[-0.0081225,51.5267177],[-0.0080982,51.5266966],[-0.0080847,51.5266846],[-0.0080444,51.5266426],[-0.0079372,51.5265696],[-0.0078498,51.5265053],[-0.0078149,51.5264791],[-0.0077523,51.5264286],[-0.0077253,51.5264057],[-0.0076992,51.5263823],[-0.0076715,51.5263571],[-0.0076438,51.5263314],[-0.0076248,51.5263131],[-0.0076085,51.5262945],[-0.0075898,51.5262739],[-0.0075743,51.5262528],[-0.0075615,51.5262352],[-0.0075497,51.5262174],[-0.0075438,51.526207],[-0.007538,51.526196],[-0.0075306,51.5261793],[-0.0075241,51.5261631],[-0.0075183,51.5261499],[-0.0075145,51.5261363],[-0.0075098,51.526122],[-0.0075069,51.5261074],[-0.0075029,51.5260912],[-0.0074982,51.5260754],[-0.0074894,51.5260258],[-0.007482,51.5259915],[-0.0074802,51.5259731],[-0.0074783,51.5259544],[-0.0074779,51.5259423],[-0.0075055,51.5257765],[-0.0075378,51.525675],[-0.0075382,51.5256741],[-0.007546,51.5256611],[-0.0075538,51.5256487],[-0.0075607,51.5256362],[-0.0075693,51.5256242],[-0.0075931,51.5255906],[-0.0076019,51.5255798],[-0.0076104,51.5255696],[-0.0076199,51.5255572],[-0.007635,51.5255422],[-0.0076866,51.5254945],[-0.0077139,51.525469],[-0.0077402,51.5254432],[-0.0077705,51.5254137],[-0.0077893,51.5253928],[-0.0078196,51.5253592],[-0.0078541,51.5253098],[-0.0078951,51.5252399],[-0.0079207,51.5251886],[-0.0079469,51.5251271],[-0.0079714,51.5250609],[-0.0079881,51.5250086],[-0.0079955,51.524984],[-0.0080028,51.524959],[-0.0080096,51.5249289],[-0.0080243,51.5248595],[-0.0080315,51.5248201],[-0.0080353,51.5247922],[-0.0080624,51.5245247],[-0.0080701,51.5244911],[-0.0080738,51.524359],[-0.008084,51.5241317],[-0.0081096,51.5239066],[-0.0081178,51.5238337],[-0.0081404,51.5237477],[-0.0081492,51.5236913],[-0.0081546,51.5236288],[-0.0081565,51.5235637],[-0.0081541,51.5234984],[-0.0081429,51.5234012],[-0.0081399,51.5233867],[-0.0081303,51.5233551],[-0.0081157,51.5233237],[-0.0081123,51.5233188],[-0.0080988,51.5232983],[-0.0080816,51.5232788],[-0.0080636,51.5232595],[-0.0080496,51.5232474],[-0.0080132,51.5232024],[-0.0079269,51.5230881],[-0.0079209,51.5230797],[-0.0078937,51.5230426],[-0.0078693,51.5230044],[-0.007858,51.5229849],[-0.0078625,51.5228815],[-0.0079035,51.5228013],[-0.00807,51.5227852],[-0.0083398,51.5227808],[-0.0083963,51.5225102],[-0.0084919,51.5221683],[-0.0085178,51.5220042],[-0.0085859,51.5217985],[-0.0093168,51.5217974],[-0.0092669,51.5215529],[-0.0091626,51.5214648],[-0.0090953,51.5213881],[-0.0090433,51.5211939],[-0.009124,51.5209282],[-0.0091488,51.5208234],[-0.0091878,51.5204238],[-0.0091585,51.5200726],[-0.009159,51.5199288],[-0.0091966,51.5198584],[-0.0091187,51.5197293],[-0.0090458,51.519649],[-0.0086429,51.5194677],[-0.0079766,51.5191452],[-0.0075508,51.5189275],[-0.0073697,51.5188166],[-0.0070502,51.5185746],[-0.0069514,51.518492],[-0.006666,51.5182282],[-0.0065537,51.5180941],[-0.006487,51.5180048],[-0.0064154,51.5178939],[-0.0063035,51.5176834],[-0.0062797,51.5175364],[-0.0062794,51.5174446],[-0.0063024,51.5172796],[-0.0062994,51.517052],[-0.0062675,51.516859],[-0.0062266,51.5167378],[-0.0061696,51.5166244],[-0.0061316,51.5165698],[-0.0060299,51.5164575],[-0.0058757,51.5163578],[-0.005839,51.5163391],[-0.0057499,51.5163008],[-0.0056562,51.5162686],[-0.0054906,51.5162307],[-0.0053184,51.5162143],[-0.0051419,51.5162284],[-0.0048499,51.516281],[-0.0043154,51.5164077],[-0.0040543,51.516744],[-0.0034722,51.5175291],[-0.003436,51.5175653],[-0.0033823,51.5176085],[-0.0033082,51.5176549],[-0.0032315,51.5176931],[-0.0031481,51.5177232],[-0.0030331,51.5177491],[-0.0028938,51.5177701],[-0.0027752,51.5177789],[-0.0026775,51.5177727],[-0.0025916,51.5177578],[-0.0021923,51.5176278],[-0.0022197,51.5175932],[-0.0010501,51.5169833],[-0.0006611,51.5167834],[-0.0005958,51.516793],[-0.0001293,51.5165513],[0.0000603,51.5164698],[0.0002514,51.5163901],[0.0007944,51.5161839],[0.0018574,51.5158402],[0.0024763,51.5155905],[0.0027436,51.5154735],[0.0032716,51.5151236],[0.0033062,51.5150898],[0.0033941,51.514993],[0.0034951,51.5148635],[0.0035773,51.5147317],[0.0036145,51.514661],[0.0036254,51.5145495],[0.0031571,51.514453],[0.0030551,51.5144277],[0.0028068,51.514351],[0.0026308,51.5142821],[0.0024396,51.5141954],[0.0022633,51.5141175],[0.0018058,51.5138735],[0.0013779,51.513647],[0.0007285,51.5132984],[0.000141,51.5129533],[-0.0003922,51.5127688],[-0.0011146,51.5126321],[-0.004556,51.5120054],[-0.0061455,51.5116898],[-0.0071308,51.5115427],[-0.0082077,51.5114865],[-0.0088808,51.5113788],[-0.0093115,51.5113563],[-0.010053,51.5113242],[-0.0113068,51.5112909],[-0.0124912,51.51123],[-0.0127656,51.5112167],[-0.0131166,51.5112007],[-0.0133448,51.5111904],[-0.0134099,51.5111819],[-0.0135106,51.5111748],[-0.0135726,51.5111717],[-0.0136774,51.5111665],[-0.0138118,51.5111598],[-0.0140982,51.5111454],[-0.0143516,51.5111327],[-0.0144506,51.5111278],[-0.0148172,51.5111113],[-0.0151698,51.5110962],[-0.0154639,51.5110835],[-0.0156501,51.511076],[-0.0158402,51.5110655],[-0.0160327,51.5110554],[-0.0162173,51.5110503],[-0.0165042,51.5110355],[-0.0168822,51.5110161],[-0.017271,51.510996],[-0.0175307,51.5109826],[-0.0175605,51.5109742],[-0.0176053,51.5109737],[-0.0178723,51.5109595],[-0.0182288,51.5109405],[-0.018484,51.5109269],[-0.0189701,51.5109074],[-0.0190792,51.5109008],[-0.0197604,51.510865],[-0.0199834,51.5108534],[-0.0202775,51.5108311],[-0.0204987,51.510824],[-0.0208451,51.5108129],[-0.0209291,51.5108102],[-0.0210046,51.5108078],[-0.0210666,51.5108085],[-0.021273,51.5108354],[-0.0218895,51.5109167],[-0.022495,51.5110134],[-0.0235552,51.5111686],[-0.0244554,51.5112998],[-0.0250842,51.5113893],[-0.0256066,51.511471],[-0.0258847,51.5115129],[-0.0259819,51.5115298],[-0.027013,51.5116821],[-0.0271562,51.5117024],[-0.0276835,51.5117946],[-0.0281183,51.5118664],[-0.028681,51.5119748],[-0.0292069,51.5121665],[-0.0295542,51.512281],[-0.0298375,51.5123504],[-0.0302246,51.5124015],[-0.0303682,51.5124129],[-0.0304258,51.5124139],[-0.0310202,51.5123339],[-0.0313577,51.5123138],[-0.0316918,51.5123358],[-0.032046,51.5123809],[-0.0324872,51.5124035],[-0.0330767,51.5124314],[-0.0333788,51.5124454],[-0.033767,51.5124699],[-0.0340546,51.5124837],[-0.0343279,51.5124973],[-0.0345583,51.5125012],[-0.0351764,51.5125385],[-0.0355911,51.512557],[-0.0358219,51.5125672],[-0.036471,51.5125962],[-0.036471,51.5125966],[-0.0364463,51.5130311],[-0.0360772,51.5134752],[-0.0355688,51.514108],[-0.0349034,51.5148338],[-0.0342368,51.5155867],[-0.0337874,51.5163706],[-0.0338206,51.5166168],[-0.0339104,51.5170686],[-0.0344794,51.5175694],[-0.0355399,51.5183377],[-0.035986,51.5186454],[-0.0362917,51.5191689],[-0.0363414,51.5200432],[-0.0364267,51.5215196],[-0.0364543,51.5219963],[-0.0364786,51.5222759],[-0.0364798,51.5222888],[-0.0365568,51.5231716],[-0.0367632,51.5239665],[-0.0370894,51.5242402],[-0.0379902,51.5250746],[-0.0391175,51.5261388],[-0.0399884,51.5273109],[-0.0399917,51.5273154],[-0.0416818,51.5296738],[-0.0422277,51.5303761],[-0.0425424,51.5307151],[-0.0430984,51.5311863],[-0.0437033,51.5314788],[-0.0441564,51.5316881],[-0.0445159,51.5318542],[-0.0449139,51.5320381],[-0.045918,51.5326196],[-0.0483117,51.5334296],[-0.0489641,51.5336571],[-0.0528298,51.5349859],[-0.0528099,51.5351702],[-0.0527108,51.535531],[-0.0525817,51.5357195],[-0.0523946,51.5359142],[-0.0521422,51.5360845],[-0.0518797,51.5362204],[-0.0517651,51.5362697],[-0.0516039,51.53633],[-0.0514941,51.5363642],[-0.0514653,51.5363704],[-0.0514335,51.5363762],[-0.0512701,51.5364089],[-0.0512699,51.5364089],[-0.0509568,51.5364568],[-0.0508789,51.5364641],[-0.0508648,51.5364639],[-0.0508087,51.5364671],[-0.0506807,51.536471],[-0.0506535,51.536472],[-0.0506265,51.5364724],[-0.0506094,51.5364721],[-0.0505914,51.5364715],[-0.0505779,51.5364703],[-0.0505644,51.5364688],[-0.0505312,51.5364669],[-0.0504485,51.5364614],[-0.0503667,51.5364546],[-0.0502896,51.536448],[-0.0502143,51.5364392],[-0.0501335,51.5364282],[-0.0500538,51.5364157],[-0.0499725,51.5364018],[-0.049893,51.536386],[-0.0498438,51.5363746],[-0.0497949,51.5363629],[-0.0496881,51.5363346],[-0.0496298,51.5363174],[-0.0495731,51.5362985],[-0.0495218,51.5362783],[-0.0494713,51.5362576],[-0.0494278,51.5362403],[-0.0493872,51.5362225],[-0.0493606,51.53621],[-0.0493351,51.5361965],[-0.0492901,51.5361737],[-0.0492223,51.5361375],[-0.0491905,51.5361209],[-0.0491587,51.5361037],[-0.0491377,51.5360916],[-0.0491166,51.5360792],[-0.0490471,51.5360384],[-0.0490252,51.5360254],[-0.0490041,51.5360125],[-0.0489839,51.536],[-0.0489647,51.5359876],[-0.0489506,51.5359788],[-0.0489357,51.5359696],[-0.0488821,51.5359327],[-0.0488035,51.5358788],[-0.0487385,51.5358372],[-0.0487062,51.5358161],[-0.0486931,51.5358073],[-0.0486807,51.5358003],[-0.0486647,51.5357929],[-0.0486488,51.5357859],[-0.0486347,51.5357793],[-0.0486214,51.5357723],[-0.0485656,51.5357489],[-0.0485019,51.5357228],[-0.0484452,51.5356994],[-0.0483947,51.5356798],[-0.0483388,51.5356594],[-0.0483022,51.535648],[-0.0482463,51.5356299],[-0.0482082,51.5356167],[-0.0481679,51.5356048],[-0.048128,51.5355933],[-0.0480862,51.5355826],[-0.048054,51.5355745],[-0.048021,51.5355677],[-0.0479844,51.5355599],[-0.0479487,51.535553],[-0.047911,51.5355474],[-0.0478734,51.5355423],[-0.0478322,51.5355357],[-0.0477552,51.5355238],[-0.0477078,51.5355162],[-0.0476602,51.5355103],[-0.0476235,51.5355062],[-0.0475876,51.5355016],[-0.0475654,51.5354989],[-0.0475437,51.5354963],[-0.0475231,51.5354942],[-0.0475015,51.5354919],[-0.0474164,51.5354834],[-0.0473479,51.5354791],[-0.0471871,51.5354477],[-0.0471833,51.5354513],[-0.0471796,51.5354543],[-0.0471741,51.5354573],[-0.0471694,51.5354594],[-0.0471603,51.5354622],[-0.0471503,51.5354636],[-0.0471377,51.5354653],[-0.0471251,51.5354664],[-0.046919,51.5354792],[-0.0468882,51.5354827],[-0.0468574,51.5354854],[-0.0468247,51.5354884],[-0.0467923,51.535491],[-0.0466728,51.5355035],[-0.0465407,51.5355178],[-0.0464047,51.5355336],[-0.0463458,51.535542],[-0.046287,51.53555],[-0.0462443,51.5355556],[-0.0462017,51.5355612],[-0.0461673,51.5355664],[-0.0461327,51.5355722],[-0.0460902,51.5355778],[-0.0460493,51.5355847],[-0.0460095,51.5355914],[-0.0459694,51.5355975],[-0.0459341,51.5356037],[-0.0459004,51.5356099],[-0.0458605,51.535616],[-0.0458198,51.5356227],[-0.045777,51.5356301],[-0.0457334,51.5356385],[-0.0456917,51.5356453],[-0.0456498,51.5356528],[-0.0455836,51.5356638],[-0.0455174,51.5356757],[-0.0454511,51.5356871],[-0.0453866,51.5356987],[-0.0453338,51.5357091],[-0.0452829,51.5357195],[-0.0452439,51.5357274],[-0.0452065,51.5357347],[-0.0451648,51.5357437],[-0.0451229,51.5357513],[-0.0450566,51.5357647],[-0.0450247,51.5357722],[-0.044995,51.5357795],[-0.0449262,51.5357918],[-0.0448607,51.5358077],[-0.0447889,51.5358326],[-0.0447066,51.5358699],[-0.0446431,51.5359057],[-0.0442999,51.536141],[-0.0439705,51.5364242],[-0.0438324,51.5364839],[-0.0437405,51.5364968],[-0.0437356,51.5364963],[-0.0437223,51.5364938],[-0.0437122,51.5364918],[-0.0437034,51.5364894],[-0.0436821,51.5364827],[-0.0436618,51.5364756],[-0.043643,51.53647],[-0.0436226,51.5364637],[-0.0436111,51.53647],[-0.0435767,51.5364617],[-0.0434697,51.5365013],[-0.0423914,51.5370003],[-0.0414372,51.537461],[-0.0411027,51.537763],[-0.0407348,51.5381022],[-0.0401598,51.5386941],[-0.0401502,51.5387034],[-0.0391113,51.5396406],[-0.0386563,51.5400953],[-0.0379497,51.5407642],[-0.0375511,51.541146],[-0.0375499,51.5411506],[-0.0375,51.5411877],[-0.0371608,51.5414101],[-0.0371737,51.5414184],[-0.0371701,51.5414211],[-0.0371567,51.5414317],[-0.0377546,51.5417895],[-0.0377624,51.5417945],[-0.0373479,51.5420777],[-0.0372892,51.5421164],[-0.0359685,51.5429468],[-0.0359676,51.5429473],[-0.0359514,51.5429546],[-0.035934,51.5429647],[-0.0359149,51.5429751],[-0.0358668,51.5430027],[-0.0358233,51.5430252],[-0.035731,51.5430759],[-0.035683,51.5431034],[-0.0356417,51.5431243],[-0.0356167,51.5431385],[-0.0351497,51.5433629],[-0.0346886,51.5435833],[-0.0346469,51.5436028],[-0.0346451,51.5436041],[-0.0345372,51.5436557],[-0.0341824,51.5439591],[-0.0341726,51.5439666],[-0.0341389,51.5439957],[-0.0341269,51.5440054],[-0.0341068,51.5440213],[-0.0340978,51.5440287],[-0.0340844,51.5440393],[-0.0340478,51.5440688],[-0.0340327,51.5440825],[-0.0340081,51.5441014],[-0.0339917,51.5441146],[-0.0339715,51.5441323],[-0.0339544,51.5441446],[-0.0339334,51.5441631],[-0.033911,51.5441803],[-0.0338834,51.5442019],[-0.0338579,51.5442244],[-0.033828,51.5442477],[-0.0337779,51.5442896],[-0.0337554,51.5443072],[-0.0337361,51.5443235],[-0.0337173,51.5443407],[-0.033679,51.5443751],[-0.0336588,51.5443941],[-0.0336398,51.5444114],[-0.0335883,51.5444572],[-0.0335531,51.5444899],[-0.0335312,51.5445089],[-0.033511,51.5445274],[-0.0334951,51.5445428],[-0.0334839,51.5445522],[-0.0334809,51.5445553],[-0.0334264,51.5445984],[-0.0333877,51.5446274],[-0.033263,51.5446748],[-0.0331788,51.5446852],[-0.0331721,51.5446853],[-0.0331676,51.5446854],[-0.0331351,51.5446825],[-0.0330857,51.5446691],[-0.0329655,51.5446382],[-0.032944,51.544632],[-0.0329433,51.5446316],[-0.0329257,51.5446219],[-0.032857,51.5445816],[-0.0328097,51.544553],[-0.0328061,51.5445511],[-0.032421,51.5443247],[-0.0324166,51.5443224],[-0.0314137,51.5437329],[-0.0312527,51.5436407],[-0.031235,51.543631],[-0.0311506,51.5435828],[-0.0310512,51.5435276],[-0.0310175,51.5435127],[-0.0309964,51.5435057],[-0.0309507,51.5434823],[-0.0306134,51.5434032],[-0.0305838,51.5433956],[-0.0305354,51.543384],[-0.0304355,51.5433594],[-0.0303366,51.5433339],[-0.0302866,51.5433218],[-0.0302118,51.5433007],[-0.0301753,51.5432917],[-0.0301369,51.5432829],[-0.0301173,51.5432779],[-0.0300959,51.5432728],[-0.0300548,51.5432631],[-0.0300352,51.5432579],[-0.0300156,51.5432525],[-0.0299996,51.5432483],[-0.0299835,51.5432439],[-0.0299684,51.5432401],[-0.0299371,51.5432323],[-0.0298998,51.5432213],[-0.0297666,51.5431733],[-0.0297055,51.5431498],[-0.0296321,51.5431166],[-0.0295954,51.5430976],[-0.0295811,51.5430895],[-0.029588,51.5430516],[-0.0295378,51.5430256],[-0.0294867,51.5430207],[-0.0294814,51.5430156],[-0.029477,51.5430102],[-0.0294712,51.5430034],[-0.0294652,51.5429969],[-0.02946,51.5429891],[-0.0294115,51.5429199],[-0.0293862,51.542876],[-0.0293229,51.5427919],[-0.0292802,51.54273],[-0.0292717,51.5427176],[-0.0292674,51.5427108],[-0.0292028,51.5426213],[-0.0291972,51.5426074],[-0.0291722,51.5425791],[-0.0291632,51.5425589],[-0.0291495,51.5425423],[-0.0291195,51.5424862],[-0.0290936,51.5424388],[-0.0290877,51.542428],[-0.0290786,51.5424075],[-0.0290654,51.5423802],[-0.0290622,51.5423711],[-0.0290567,51.542355],[-0.0290508,51.5423434],[-0.0290451,51.5423298],[-0.0290403,51.5423156]]]]},"properties":{"borough":"tower_hamlets","felt_id":1111}},{"type":"Feature","geometry":{"type":"MultiPolygon","coordinates":[[[[-0.0304135,51.5072359],[-0.0303982,51.5072451],[-0.030396,51.5072473],[-0.0303957,51.5072485],[-0.0303969,51.507251],[-0.0303984,51.5072522],[-0.0304106,51.5072602],[-0.0304155,51.5072634],[-0.0301412,51.5074258],[-0.0300989,51.5074508],[-0.0299718,51.5075284],[-0.0299213,51.5075858],[-0.0298886,51.5076262],[-0.0298124,51.5076895],[-0.0297912,51.5076992],[-0.0297493,51.5077173],[-0.0297269,51.5077261],[-0.0297054,51.5077346],[-0.0296758,51.5077521],[-0.029666,51.5077615],[-0.0296307,51.5077963],[-0.0296081,51.5078247],[-0.029554,51.5079029],[-0.0294638,51.5079016],[-0.0294477,51.5079018],[-0.0294098,51.5079023],[-0.0294093,51.5078673],[-0.029398,51.5078675],[-0.0291635,51.5078714],[-0.0291172,51.5078722],[-0.029117,51.5078614],[-0.0291165,51.5078551],[-0.0291162,51.5078461],[-0.0291156,51.507833],[-0.0291169,51.5078192],[-0.0288425,51.5078364],[-0.0288198,51.5078379],[-0.0282296,51.5078716],[-0.0278536,51.5079013],[-0.0278104,51.5079006],[-0.0275302,51.5078799],[-0.0275121,51.5078786],[-0.0274944,51.5078773],[-0.0274224,51.5078761],[-0.027408,51.5078758],[-0.027322,51.5078654],[-0.0273076,51.5078651],[-0.0273004,51.507865],[-0.0272753,51.5079379],[-0.0272422,51.5080655],[-0.0272131,51.5081515],[-0.0270763,51.5084761],[-0.0269871,51.5086143],[-0.0268997,51.5087642],[-0.0266996,51.5089898],[-0.0265671,51.5091115],[-0.0264032,51.5092657],[-0.0262847,51.5093906],[-0.0262174,51.5094394],[-0.0261151,51.5094986],[-0.0259611,51.5095754],[-0.0255624,51.5097721],[-0.026425,51.510319],[-0.0270179,51.5107036],[-0.0275449,51.5110958],[-0.0280489,51.5114787],[-0.0281488,51.5115536],[-0.0281912,51.5116567],[-0.0281778,51.5117501],[-0.0281188,51.5118664],[-0.0276839,51.5117946],[-0.0271565,51.5117025],[-0.0270133,51.5116821],[-0.0259824,51.5115298],[-0.0258849,51.5115129],[-0.025607,51.511471],[-0.0250845,51.5113893],[-0.0244559,51.5112998],[-0.0235556,51.5111686],[-0.0224953,51.5110134],[-0.0218898,51.5109167],[-0.0212734,51.5108354],[-0.0210669,51.5108085],[-0.0210049,51.5108078],[-0.0209294,51.5108102],[-0.0208454,51.510813],[-0.020499,51.510824],[-0.0202778,51.5108311],[-0.0199837,51.5108534],[-0.0197608,51.5108651],[-0.0190796,51.5109008],[-0.0189704,51.5109074],[-0.0184844,51.5109269],[-0.0182291,51.5109405],[-0.0178726,51.5109595],[-0.0176058,51.5109737],[-0.0175609,51.5109742],[-0.017531,51.5109826],[-0.0172713,51.510996],[-0.0168825,51.5110161],[-0.0165046,51.5110355],[-0.0162178,51.5110503],[-0.0160329,51.5110554],[-0.0158407,51.5110655],[-0.0156506,51.511076],[-0.0154642,51.5110835],[-0.0151701,51.5110962],[-0.0148176,51.5111113],[-0.0144509,51.5111278],[-0.0143521,51.5111327],[-0.0140986,51.5111454],[-0.0138122,51.5111598],[-0.0136779,51.5111665],[-0.0135729,51.5111717],[-0.0135109,51.5111748],[-0.0134103,51.5111819],[-0.0133451,51.5111904],[-0.0131171,51.5112007],[-0.0127659,51.5112167],[-0.0124915,51.51123],[-0.0113072,51.5112909],[-0.0100532,51.5113242],[-0.0093118,51.5113563],[-0.0088811,51.5113788],[-0.008208,51.5114865],[-0.0071311,51.5115427],[-0.006146,51.5116899],[-0.0045564,51.5120054],[-0.0011149,51.5126321],[-0.0003927,51.5127688],[0.0001406,51.5129533],[0.000728,51.5132984],[0.0013776,51.513647],[0.0018053,51.5138735],[0.002263,51.5141175],[0.0024392,51.5141954],[0.0026304,51.5142821],[0.0028065,51.514351],[0.0030547,51.5144277],[0.0031567,51.514453],[0.0036253,51.5145496],[0.0036264,51.5145385],[0.0035931,51.5144023],[0.0034449,51.5140811],[0.0033277,51.5138718],[0.0032854,51.5138617],[0.0031886,51.5136593],[0.0031577,51.5136121],[0.0027409,51.5134727],[0.002705,51.5134445],[0.0026477,51.5133852],[0.0026105,51.5133256],[0.0025547,51.5131386],[0.0025508,51.5129193],[0.0026508,51.5128663],[0.0018688,51.5117277],[0.001774,51.5114074],[0.0017538,51.5112081],[0.0017312,51.5111527],[0.0016343,51.511113],[0.0013966,51.5111153],[0.0013841,51.510995],[0.0016868,51.5109628],[0.0017553,51.5108474],[0.0018784,51.5106988],[0.0020806,51.5105442],[0.0021738,51.5105004],[0.0022023,51.5104918],[0.0024881,51.5104366],[0.002991,51.5103695],[0.0036017,51.5103627],[0.0036784,51.5103686],[0.0037524,51.5103799],[0.0038297,51.5104011],[0.0041086,51.5104844],[0.0043065,51.510562],[0.0043956,51.5106198],[0.004439,51.5106586],[0.0045184,51.510758],[0.0045978,51.5108277],[0.0046801,51.5109288],[0.0047832,51.5112436],[0.0048039,51.5112873],[0.004916,51.5114454],[0.0049491,51.5115096],[0.0050294,51.5116962],[0.0051244,51.5119562],[0.0051339,51.5121395],[0.0052627,51.5128747],[0.0052975,51.5130108],[0.0053366,51.5131459],[0.0053851,51.5132665],[0.0054491,51.5134102],[0.0054971,51.5134867],[0.0055783,51.513595],[0.0056496,51.5136766],[0.0057065,51.5137259],[0.0058133,51.5137934],[0.0059882,51.5138722],[0.0060467,51.513891],[0.006166,51.5139168],[0.0062628,51.5139224],[0.0064128,51.5139252],[0.0066276,51.5138936],[0.0067382,51.5138522],[0.0068101,51.5138159],[0.0068775,51.5137742],[0.0069513,51.5137163],[0.0070303,51.5136439],[0.0071003,51.5135645],[0.007215,51.5133539],[0.0073431,51.5128913],[0.0073548,51.512829],[0.0073572,51.5126545],[0.0071843,51.5121971],[0.006793,51.5116543],[0.0065448,51.5112215],[0.0061094,51.5108576],[0.0058499,51.5105922],[0.0057029,51.5104617],[0.0056437,51.5103925],[0.0055748,51.5102687],[0.0055417,51.5101695],[0.0055389,51.5101389],[0.0055595,51.5100172],[0.0055995,51.5099113],[0.0057056,51.5097359],[0.0060926,51.5095224],[0.0063841,51.5094662],[0.0063807,51.5093557],[0.007204,51.5092013],[0.0072463,51.5092797],[0.008137,51.509117],[0.0087309,51.5089584],[0.008827,51.5089154],[0.0088861,51.508882],[0.0089308,51.5088498],[0.0090276,51.5087564],[0.0090724,51.5086936],[0.0091126,51.5086245],[0.0091851,51.5084722],[0.0092001,51.5084207],[0.0092062,51.5083612],[0.0092026,51.5083127],[0.0091873,51.5082609],[0.0091573,51.5082002],[0.0090885,51.5081115],[0.009046,51.5080295],[0.0089907,51.507918],[0.0090399,51.5078236],[0.0090623,51.5077441],[0.0087567,51.5073168],[0.0086785,51.5073074],[0.0081934,51.5074505],[0.0070552,51.5077506],[0.0069402,51.5077903],[0.0068117,51.5077836],[0.0061711,51.5079959],[0.006137,51.5080073],[0.0061766,51.5081217],[0.0058341,51.5081986],[0.0057573,51.508057],[0.0057122,51.508047],[0.0056144,51.5080531],[0.0039169,51.508316],[0.0039219,51.5083644],[0.0037002,51.5083691],[0.0036785,51.5083677],[0.0034872,51.508014],[0.0034736,51.5080016],[0.0034295,51.5079817],[0.0033991,51.5079777],[0.0033617,51.5079801],[0.0032651,51.5080105],[0.0032345,51.5080372],[0.0032267,51.5080553],[0.0032275,51.5080732],[0.0032458,51.5081296],[0.00324,51.5081621],[0.0032197,51.5081921],[0.0031932,51.5082114],[0.0031619,51.5082218],[0.0031016,51.5082256],[0.0030596,51.5082218],[0.0029904,51.5081888],[0.0029557,51.5081184],[0.0028564,51.5080886],[0.0027433,51.5080734],[0.0014123,51.5079882],[0.0011348,51.5079354],[-0.0013368,51.5074704],[-0.0017137,51.507421],[-0.001743,51.5074413],[-0.0020731,51.5073417],[-0.0020597,51.5072848],[-0.002129,51.5072501],[-0.0022488,51.5071793],[-0.002334,51.5071411],[-0.0024207,51.507104],[-0.0024841,51.5071365],[-0.002594,51.5071267],[-0.0027945,51.507024],[-0.0028302,51.5069994],[-0.0028089,51.506892],[-0.0028273,51.5068681],[-0.003195,51.5066639],[-0.0033962,51.5066098],[-0.0033787,51.5065169],[-0.0037082,51.5062976],[-0.0041289,51.5059694],[-0.0048076,51.5054746],[-0.0052407,51.505125],[-0.0053585,51.5050353],[-0.0055418,51.5051274],[-0.0056594,51.5051744],[-0.0057492,51.5050977],[-0.0056342,51.5050256],[-0.0056926,51.504942],[-0.0055202,51.5048303],[-0.0058389,51.5045273],[-0.0060095,51.5043827],[-0.0061799,51.5042417],[-0.0064011,51.5040926],[-0.0065239,51.5039868],[-0.0065654,51.5039614],[-0.0066778,51.5038941],[-0.0067069,51.503855],[-0.0067273,51.5038167],[-0.0067215,51.5037518],[-0.0066836,51.5036963],[-0.0066147,51.5036241],[-0.006587,51.5035967],[-0.0066193,51.5035846],[-0.0069226,51.5034693],[-0.0070101,51.5033116],[-0.0071481,51.5031557],[-0.0073384,51.502756],[-0.0073675,51.5026846],[-0.0074036,51.5024847],[-0.0074745,51.5022125],[-0.0075184,51.5020001],[-0.0076401,51.50162],[-0.0076818,51.5014894],[-0.0084822,51.5013411],[-0.0088836,51.5013551],[-0.0089859,51.5012894],[-0.0089841,51.5012309],[-0.0089422,51.5011673],[-0.0089052,51.5011244],[-0.008485,51.501111],[-0.0078012,51.5008017],[-0.0077972,51.5006281],[-0.0077501,51.5004852],[-0.0078318,51.5004623],[-0.0077702,51.5001249],[-0.0076605,51.5000952],[-0.0076531,51.5000663],[-0.0076544,51.5000375],[-0.0077954,51.5000093],[-0.0078302,51.4999704],[-0.007834,51.4999506],[-0.007825,51.4999244],[-0.0078059,51.4998998],[-0.0077679,51.4998803],[-0.0076447,51.4998953],[-0.007603,51.4996302],[-0.0074253,51.4987162],[-0.0073675,51.4984886],[-0.007338,51.4984045],[-0.007293,51.4982814],[-0.0070051,51.4983071],[-0.0069274,51.4980081],[-0.0064262,51.4969816],[-0.0063258,51.4969044],[-0.005657,51.4958552],[-0.006167,51.4957227],[-0.0061556,51.4956551],[-0.006216,51.4956246],[-0.0061738,51.4955673],[-0.0059953,51.4955984],[-0.0058806,51.4954202],[-0.005716,51.4951962],[-0.0056108,51.4950316],[-0.005395,51.4946637],[-0.0051675,51.4946931],[-0.0050089,51.4944989],[-0.0047722,51.4945407],[-0.004225,51.493776],[-0.0036998,51.4928714],[-0.0032704,51.4921501],[-0.0032455,51.4919617],[-0.0031721,51.4917626],[-0.0031094,51.4914819],[-0.0030495,51.490908],[-0.0030539,51.4908074],[-0.003045,51.4906813],[-0.0031434,51.4901776],[-0.0032031,51.4899637],[-0.0032536,51.4898306],[-0.0033615,51.489604],[-0.0036148,51.4891785],[-0.0036923,51.4889559],[-0.0038135,51.4888851],[-0.0038629,51.488841],[-0.0040765,51.4886027],[-0.0043088,51.4883953],[-0.0044458,51.4882924],[-0.0045065,51.4882539],[-0.005182,51.4885523],[-0.0051953,51.4885462],[-0.0053248,51.4884486],[-0.0046687,51.4881029],[-0.005024,51.48785],[-0.0052444,51.487717],[-0.0053977,51.4876378],[-0.0055579,51.4875632],[-0.0062177,51.4872659],[-0.0063473,51.4871998],[-0.0065264,51.4871237],[-0.0072533,51.4869023],[-0.00796,51.4867173],[-0.0082197,51.4866408],[-0.0084526,51.4865845],[-0.0085994,51.4865555],[-0.0098389,51.4863392],[-0.0099404,51.4864893],[-0.0102876,51.4864538],[-0.0102326,51.4862946],[-0.0110631,51.4861756],[-0.0116529,51.4861262],[-0.0123593,51.4860465],[-0.0129833,51.4860067],[-0.0130287,51.486056],[-0.0132002,51.4860535],[-0.0132028,51.4859933],[-0.0132031,51.4859871],[-0.0138043,51.4860053],[-0.0138187,51.4860065],[-0.0138959,51.4860186],[-0.013932,51.4860174],[-0.0139932,51.4860013],[-0.014054,51.4859619],[-0.0148131,51.4859936],[-0.0151666,51.4860131],[-0.0153533,51.4860253],[-0.0164066,51.4861483],[-0.016541,51.4861722],[-0.0166978,51.486209],[-0.0168871,51.4862634],[-0.0178659,51.4864113],[-0.0182031,51.4864727],[-0.0184143,51.4865195],[-0.0186095,51.4865686],[-0.0186394,51.4865763],[-0.0188287,51.486629],[-0.0191344,51.4867196],[-0.0207686,51.4872679],[-0.0213979,51.48747],[-0.0217068,51.4876227],[-0.0227225,51.4881497],[-0.0229736,51.488305],[-0.0234323,51.4886248],[-0.0235973,51.48874],[-0.0238724,51.4889398],[-0.0241555,51.489155],[-0.0244298,51.4893736],[-0.0249526,51.4898096],[-0.0254567,51.4903442],[-0.0255632,51.4904458],[-0.0256989,51.4906054],[-0.0258822,51.4908648],[-0.0261375,51.4912585],[-0.0263974,51.4917107],[-0.0265607,51.4920318],[-0.0266099,51.4921603],[-0.026619,51.4921838],[-0.0267653,51.4924651],[-0.0271241,51.4930961],[-0.0274181,51.4936937],[-0.0274086,51.4937142],[-0.0274249,51.4937702],[-0.0274218,51.4937756],[-0.0268254,51.4939418],[-0.0255149,51.4939305],[-0.025569,51.494114],[-0.0255771,51.4941267],[-0.0268122,51.4941475],[-0.0269156,51.4941555],[-0.0271159,51.4941868],[-0.0277105,51.4942624],[-0.0277791,51.4943085],[-0.0278121,51.4943451],[-0.0278367,51.4944102],[-0.0278784,51.4947455],[-0.0278849,51.4948939],[-0.02788,51.4950422],[-0.0278211,51.4955727],[-0.0276964,51.496692],[-0.0275947,51.4967128],[-0.0274855,51.497639],[-0.02748,51.4977342],[-0.0274812,51.4980058],[-0.0275087,51.4982689],[-0.0275159,51.4985028],[-0.0274689,51.4994912],[-0.02775,51.4994878],[-0.0277494,51.4996038],[-0.0277646,51.4997516],[-0.0274636,51.4997474],[-0.0274706,51.5009552],[-0.027429,51.5019833],[-0.0273948,51.5021761],[-0.0273159,51.5023348],[-0.0273144,51.5023348],[-0.026997,51.5031118],[-0.0268935,51.5031397],[-0.0265949,51.5031473],[-0.0264439,51.5031421],[-0.0262972,51.5031342],[-0.0261717,51.5031051],[-0.0260887,51.5030911],[-0.0259297,51.5030695],[-0.0258593,51.5030648],[-0.0258319,51.5031318],[-0.025796,51.503195],[-0.026197,51.5032521],[-0.0263766,51.503265],[-0.0268049,51.5033568],[-0.0268766,51.5033643],[-0.0269064,51.5033747],[-0.0269276,51.5033858],[-0.0269603,51.5034286],[-0.0269566,51.5035149],[-0.0270529,51.5035525],[-0.0272214,51.503656],[-0.0273458,51.5039432],[-0.0275973,51.5043943],[-0.0275672,51.5044568],[-0.0276499,51.5046434],[-0.0277494,51.5048411],[-0.0278505,51.505038],[-0.0280903,51.5053559],[-0.0276746,51.5054406],[-0.0277666,51.5056454],[-0.0281437,51.5055888],[-0.0283761,51.5058454],[-0.0287588,51.5062268],[-0.0288102,51.5062394],[-0.0288592,51.5062708],[-0.0288713,51.5062916],[-0.0288732,51.506315],[-0.0288592,51.5063391],[-0.0288146,51.5063698],[-0.0279362,51.5065889],[-0.0279508,51.5066188],[-0.0280147,51.5067071],[-0.0280218,51.5067099],[-0.0289932,51.5064726],[-0.0290795,51.506475],[-0.0297372,51.5070966],[-0.0296736,51.5071342],[-0.0300234,51.5074441],[-0.0304144,51.507233],[-0.0304168,51.5072343],[-0.0304135,51.5072359]]]]},"properties":{"borough":"tower_hamlets","felt_id":1112}},{"type":"Feature","geometry":{"type":"MultiPolygon","coordinates":[[[[-0.0181047,51.5321653],[-0.0182249,51.5321037],[-0.0183162,51.5320572],[-0.0183316,51.5320493],[-0.0183484,51.5320407],[-0.0184502,51.5319889],[-0.0185542,51.5319407],[-0.0186759,51.5318805],[-0.0187182,51.5318605],[-0.0188128,51.5318159],[-0.0189109,51.5317686],[-0.0190389,51.5318417],[-0.0190486,51.5318472],[-0.0190756,51.5318626],[-0.0196391,51.5321689],[-0.0206305,51.5325813],[-0.0223765,51.533546],[-0.0227145,51.5337315],[-0.0236577,51.53426],[-0.024051,51.5345004],[-0.0242048,51.534611],[-0.0242605,51.5346569],[-0.0243848,51.5347848],[-0.0244802,51.5349123],[-0.0245222,51.53494],[-0.0245653,51.5349766],[-0.0246196,51.5350226],[-0.0247306,51.5351234],[-0.0248961,51.535297],[-0.024989,51.5354016],[-0.0250208,51.5354372],[-0.0250748,51.5354979],[-0.0252112,51.53568],[-0.0254152,51.5359622],[-0.0255484,51.5362163],[-0.0256649,51.536524],[-0.0257416,51.5367501],[-0.0258145,51.5370661],[-0.0258856,51.5374626],[-0.0258979,51.5375307],[-0.026012,51.5381665],[-0.0260237,51.5382296],[-0.0260358,51.5382838],[-0.0260548,51.5383577],[-0.0260591,51.5383749],[-0.0260728,51.5384283],[-0.0261812,51.538852],[-0.0261838,51.5388618],[-0.0262114,51.5389668],[-0.0262136,51.5389755],[-0.026412,51.5397328],[-0.0264149,51.5397464],[-0.0264155,51.5397461],[-0.026617,51.5405147],[-0.0266934,51.5407498],[-0.0268398,51.5410311],[-0.0268663,51.5410855],[-0.0269477,51.5412037],[-0.0271779,51.5415493],[-0.0272457,51.5416494],[-0.0273836,51.5417956],[-0.0277155,51.5421249],[-0.0279663,51.542327],[-0.028155,51.5424622],[-0.0278432,51.5425389],[-0.0278014,51.5425501],[-0.0277799,51.5425549],[-0.0277249,51.5425705],[-0.0273778,51.5426633],[-0.0270511,51.5427486],[-0.0268545,51.5428031],[-0.0266767,51.5428491],[-0.0266027,51.5428729],[-0.0265066,51.5428995],[-0.0258581,51.5431215],[-0.0257628,51.5431586],[-0.0257076,51.5431999],[-0.0256848,51.5432213],[-0.0256177,51.5432517],[-0.0256296,51.5433191],[-0.0256127,51.5433611],[-0.0255429,51.5433401],[-0.0255056,51.5432703],[-0.0253485,51.5432334],[-0.0238635,51.5433244],[-0.0230707,51.5433479],[-0.0230835,51.5433841],[-0.0230098,51.5433883],[-0.0227529,51.5433921],[-0.0225534,51.5434031],[-0.0223716,51.5434054],[-0.022355,51.5434231],[-0.0222974,51.5434878],[-0.0214567,51.5435177],[-0.0203521,51.5435836],[-0.0198933,51.5435857],[-0.0192281,51.5435943],[-0.0185558,51.5435676],[-0.0177843,51.5434656],[-0.017421,51.5434298],[-0.0170505,51.5433938],[-0.0168233,51.5433459],[-0.0167649,51.5433944],[-0.0165715,51.5433641],[-0.0165682,51.5433092],[-0.0165402,51.5431883],[-0.0165021,51.5430716],[-0.0164548,51.542998],[-0.0163123,51.5428256],[-0.0162222,51.5427083],[-0.0162135,51.5425737],[-0.016268,51.5424039],[-0.0163299,51.5422844],[-0.0163493,51.5421641],[-0.0163778,51.5420528],[-0.0164164,51.541924],[-0.0164364,51.5417598],[-0.0164365,51.5417594],[-0.0165153,51.5415071],[-0.0166349,51.5413751],[-0.0167872,51.5412572],[-0.0170046,51.5411979],[-0.0172338,51.5411344],[-0.0174612,51.5410789],[-0.0176226,51.5410142],[-0.0177517,51.5409318],[-0.0178018,51.5408059],[-0.0177806,51.5406206],[-0.0177821,51.5406031],[-0.017824,51.540322],[-0.0178323,51.5402698],[-0.0178795,51.5401795],[-0.0179373,51.5400912],[-0.0179607,51.5400644],[-0.0179978,51.5400302],[-0.0182494,51.539879],[-0.0184586,51.5397355],[-0.0186053,51.5396203],[-0.0186317,51.5395947],[-0.0186465,51.5395863],[-0.0188104,51.539465],[-0.0189163,51.5393508],[-0.0190286,51.5391234],[-0.0191478,51.5387693],[-0.0192094,51.5386045],[-0.0192276,51.5385695],[-0.0193478,51.5384097],[-0.0194961,51.5382632],[-0.019662,51.5381395],[-0.0198287,51.5380412],[-0.0199035,51.5380033],[-0.020005,51.5379582],[-0.0202027,51.5378869],[-0.0205586,51.5377284],[-0.0205747,51.5377185],[-0.0205919,51.537711],[-0.0207279,51.5376251],[-0.0207324,51.5376212],[-0.0208253,51.5375638],[-0.0210899,51.5373462],[-0.0212459,51.5371411],[-0.0212641,51.53702],[-0.0212591,51.5369974],[-0.021261,51.5369536],[-0.0212444,51.5368596],[-0.0212038,51.5367064],[-0.0211732,51.5366184],[-0.0211704,51.536522],[-0.0210136,51.5363438],[-0.0210041,51.5363266],[-0.0209902,51.5363172],[-0.0209752,51.5363002],[-0.0208678,51.5362174],[-0.0206419,51.5361517],[-0.0206312,51.5361474],[-0.0203346,51.5360469],[-0.0201526,51.5359574],[-0.0199893,51.5358265],[-0.0198332,51.535686],[-0.019654,51.5355285],[-0.0195354,51.5354053],[-0.0194257,51.5352803],[-0.0193257,51.5351321],[-0.0192316,51.5349888],[-0.0191508,51.5348771],[-0.019109,51.5347551],[-0.0191031,51.5346172],[-0.0190938,51.5343434],[-0.0190703,51.534207],[-0.0189098,51.5340296],[-0.018775,51.5339428],[-0.018632,51.5338558],[-0.0185822,51.5338249],[-0.0183119,51.5336453],[-0.0181897,51.5335421],[-0.0181053,51.5334432],[-0.0180894,51.533423],[-0.0180249,51.5333261],[-0.0180115,51.5332946],[-0.0180126,51.5330651],[-0.0180393,51.532967],[-0.0180416,51.5329638],[-0.0181755,51.5327742],[-0.0182443,51.5326885],[-0.0182942,51.5325552],[-0.0182571,51.5324582],[-0.0182541,51.5324503],[-0.0182077,51.5323906],[-0.0181974,51.5323649],[-0.0181682,51.5323399],[-0.0181397,51.5323032],[-0.0180244,51.532208],[-0.0181047,51.5321653]]]]},"properties":{"borough":"tower_hamlets","felt_id":1113}}]}
